{
    "links": {
        "self": "http://www.neowsapp.com/rest/v1/neo/3879295?api_key=iIulBulltgU6a56xZRHN4H3l9WmuAYTsLGpBGhQ2"
    },
    "id": "3879295",
    "neo_reference_id": "3879295",
    "name": "(2019 UK2)",
    "designation": "2019 UK2",
    "nasa_jpl_url": "http://ssd.jpl.nasa.gov/sbdb.cgi?sstr=3879295",
    "absolute_magnitude_h": 27.8,
    "estimated_diameter": {
        "kilometers": {
            "estimated_diameter_min": 0.0073207399,
            "estimated_diameter_max": 0.016369672
        },
        "meters": {
            "estimated_diameter_min": 7.3207398935,
            "estimated_diameter_max": 16.3696720474
        },
        "miles": {
            "estimated_diameter_min": 0.0045488955,
            "estimated_diameter_max": 0.0101716395
        },
        "feet": {
            "estimated_diameter_min": 24.0181762721,
            "estimated_diameter_max": 53.70627484
        }
    },
    "is_potentially_hazardous_asteroid": false,
    "close_approach_data": [
        {
            "close_approach_date": "2019-10-17",
            "close_approach_date_full": "2019-Oct-17 15:49",
            "epoch_date_close_approach": 1571327340000,
            "relative_velocity": {
                "kilometers_per_second": "7.938742668",
                "kilometers_per_hour": "28579.4736049294",
                "miles_per_hour": "17758.1734741296"
            },
            "miss_distance": {
                "astronomical": "0.0058059298",
                "lunar": "2.2585066922",
                "kilometers": "868554.731449526",
                "miles": "539694.8841384188"
            },
            "orbiting_body": "Earth"
        },
        {
            "close_approach_date": "2019-10-18",
            "close_approach_date_full": "2019-Oct-18 02:55",
            "epoch_date_close_approach": 1571367300000,
            "relative_velocity": {
                "kilometers_per_second": "8.2451256412",
                "kilometers_per_hour": "29682.4523084768",
                "miles_per_hour": "18443.5215468977"
            },
            "miss_distance": {
                "astronomical": "0.0068792908",
                "lunar": "2.6760441212",
                "kilometers": "1029127.250790596",
                "miles": "639470.0210223848"
            },
            "orbiting_body": "Moon"
        },
        {
            "close_approach_date": "2021-07-06",
            "close_approach_date_full": "2021-Jul-06 13:41",
            "epoch_date_close_approach": 1625578860000,
            "relative_velocity": {
                "kilometers_per_second": "15.7910930422",
                "kilometers_per_hour": "56847.9349519366",
                "miles_per_hour": "35323.0960261075"
            },
            "miss_distance": {
                "astronomical": "0.282033111",
                "lunar": "109.710880179",
                "kilometers": "42191552.67507357",
                "miles": "26216615.151692466"
            },
            "orbiting_body": "Earth"
        }
    ],
    "orbital_data": {
        "orbit_id": "3",
        "orbit_determination_date": "2019-11-10 04:59:58",
        "first_observation_date": "2019-10-21",
        "last_observation_date": "2019-11-03",
        "data_arc_in_days": 13,
        "observations_used": 15,
        "orbit_uncertainty": "8",
        "minimum_orbit_intersection": ".00455956",
        "jupiter_tisserand_invariant": "4.377",
        "epoch_osculation": "2458779.5",
        "eccentricity": ".3847587467458398",
        "semi_major_axis": "1.542073334524113",
        "inclination": "3.872610766690675",
        "ascending_node_longitude": "19.33187988272784",
        "orbital_period": "699.4488621491885",
        "perihelion_distance": ".9487471309424369",
        "perihelion_argument": "329.9203590940492",
        "aphelion_distance": "2.135399538105788",
        "perihelion_time": "2458745.907758271461",
        "mean_anomaly": "17.28962283978186",
        "mean_motion": ".5146909509493405",
        "equinox": "J2000",
        "orbit_class": {
            "orbit_class_type": "APO",
            "orbit_class_description": "Near-Earth asteroid orbits which cross the Earth’s orbit similar to that of 1862 Apollo",
            "orbit_class_range": "a (semi-major axis) > 1.0 AU; q (perihelion) < 1.017 AU"
        }
    },
    "is_sentry_object": false
}